WORLDVIEW-3 (WV-3)      
1 40115U 14048A   26063.78873894  .00001535  00000+0  18710-3 0  9992
2 40115  97.8642 140.0464 0000493  12.7395 347.3832 14.84822180626418
GAOFEN-2                
1 40118U 14049A   26063.84758522  .00000359  00000+0  53523-4 0  9998
2 40118  98.0237 128.1077 0006700 201.9295 158.1631 14.80760145623790
YAOGAN-21               
1 40143U 14053A   26063.87510767  .00005837  00000+0  23744-3 0  9998
2 40143  97.1623 108.6247 0010140 100.8054 259.4326 15.24840233639050
YAOGAN-22               
1 40275U 14063A   26063.38725440 -.00000024  00000+0  59717-4 0  9991
2 40275 100.7526 212.9903 0006721  69.3263 290.8569 13.15526787546034
ASNARO                  
1 40298U 14070A   26063.85296560  .00013162  00000+0  61910-3 0  9995
2 40298  97.3525 142.7417 0007253 156.4427 203.7141 15.19669386628163
YAOGAN-24               
1 40310U 14072A   26063.83054674  .00001616  00000+0  24093-3 0  9990
2 40310  98.1295 200.3935 0012088 235.4440 124.5629 14.76218814608327
CBERS 4                 
1 40336U 14079A   26063.83377038  .00000090  00000+0  46018-4 0  9994
2 40336  98.3495 124.0020 0000779  54.5959 305.5299 14.35411057588987
YAOGAN-26               
1 40362U 14088A   26063.87412388  .00035411  00000+0  80333-3 0  9997
2 40362  97.0661  66.8417 0007320  76.3384 283.8679 15.42953781621592
SMAP                    
1 40376U 15003A   26063.80632851  .00000797  00000+0  16348-3 0  9996
2 40376  98.1311  72.3633 0001273 112.9677 247.1660 14.63331792592354
KOMPSAT-3A              
1 40536U 15014A   26063.81258727  .00031214  00000+0  54379-3 0  9997
2 40536  97.6866  47.9985 0062940 195.1986 164.7375 15.48439399605632
SENTINEL-2A             
1 40697U 15028A   26056.18000490  .00000159  00000+0  76852-4 0  9999
2 40697  98.5024 132.8928 0054368 194.7437 165.2162 14.30192923557712
GAOFEN-8                
1 40701U 15030A   26063.88177212  .00029685  00000+0  69071-3 0  9999
2 40701  97.6923 251.2616 0009321 205.6282 154.4503 15.42219051595352
CARBONITE 1 (CBNT-1)    
1 40718U 15032D   26063.83164294  .00004073  00000+0  50421-3 0  9993
2 40718  97.6452 246.3083 0013319 278.1384  81.8319 14.83192147573871
YAOGAN-27               
1 40878U 15040A   26063.87993931 -.00000038  00000+0  10470-4 0  9990
2 40878 100.1092  54.8185 0008885  94.4267 265.7862 13.16064476503949
GAOFEN-9 01             
1 40894U 15047A   26063.87005324  .00001567  00000+0  19923-3 0  9993
2 40894  97.6424 104.2461 0028776 120.9198 239.4851 14.82667731564739
YAOGAN-28               
1 41026U 15064A   26063.84845050  .00010801  00000+0  42320-3 0  9993
2 41026  97.2895 204.4510 0010828 193.4907 166.6044 15.25900825574766
YAOGAN-29               
1 41038U 15069A   26063.86900348  .00000065  00000+0  14731-4 0  9992
2 41038  98.0146  92.2850 0002196  44.1428 315.9960 14.82987439555163
