[{"OBJECT_NAME":"WORLDVIEW-3 (WV-3)","OBJECT_ID":"2014-048A","EPOCH":"2026-03-04T18:55:47.044416","MEAN_MOTION":14.8482218,"ECCENTRICITY":4.93e-5,"INCLINATION":97.8642,"RA_OF_ASC_NODE":140.0464,"ARG_OF_PERICENTER":12.7395,"MEAN_ANOMALY":347.3832,"EPHEMERIS_TYPE":0,"CLASSIFICATION_TYPE":"U","NORAD_CAT_ID":40115,"ELEMENT_SET_NO":999,"REV_AT_EPOCH":62641,"BSTAR":0.0001871,"MEAN_MOTION_DOT":1.535e-5,"MEAN_MOTION_DDOT":0},{"OBJECT_NAME":"GAOFEN-2","OBJECT_ID":"2014-049A","EPOCH":"2026-03-04T20:20:31.363008","MEAN_MOTION":14.80760145,"ECCENTRICITY":0.00067,"INCLINATION":98.0237,"RA_OF_ASC_NODE":128.1077,"ARG_OF_PERICENTER":201.9295,"MEAN_ANOMALY":158.1631,"EPHEMERIS_TYPE":0,"CLASSIFICATION_TYPE":"U","NORAD_CAT_ID":40118,"ELEMENT_SET_NO":999,"REV_AT_EPOCH":62379,"BSTAR":5.3523e-5,"MEAN_MOTION_DOT":3.59e-6,"MEAN_MOTION_DDOT":0},{"OBJECT_NAME":"YAOGAN-21","OBJECT_ID":"2014-053A","EPOCH":"2026-03-04T21:00:09.302688","MEAN_MOTION":15.24840233,"ECCENTRICITY":0.001014,"INCLINATION":97.1623,"RA_OF_ASC_NODE":108.6247,"ARG_OF_PERICENTER":100.8054,"MEAN_ANOMALY":259.4326,"EPHEMERIS_TYPE":0,"CLASSIFICATION_TYPE":"U","NORAD_CAT_ID":40143,"ELEMENT_SET_NO":999,"REV_AT_EPOCH":63905,"BSTAR":0.00023744,"MEAN_MOTION_DOT":5.837e-5,"MEAN_MOTION_DDOT":0},{"OBJECT_NAME":"YAOGAN-22","OBJECT_ID":"2014-063A","EPOCH":"2026-03-04T09:17:38.780160","MEAN_MOTION":13.15526787,"ECCENTRICITY":0.00067219,"INCLINATION":100.7526,"RA_OF_ASC_NODE":212.9903,"ARG_OF_PERICENTER":69.3263,"MEAN_ANOMALY":290.8569,"EPHEMERIS_TYPE":0,"CLASSIFICATION_TYPE":"U","NORAD_CAT_ID":40275,"ELEMENT_SET_NO":999,"REV_AT_EPOCH":54603,"BSTAR":5.9716914e-5,"MEAN_MOTION_DOT":-2.4e-7,"MEAN_MOTION_DDOT":0},{"OBJECT_NAME":"ASNARO","OBJECT_ID":"2014-070A","EPOCH":"2026-03-04T20:28:16.227840","MEAN_MOTION":15.19669386,"ECCENTRICITY":0.0007253,"INCLINATION":97.3525,"RA_OF_ASC_NODE":142.7417,"ARG_OF_PERICENTER":156.4427,"MEAN_ANOMALY":203.7141,"EPHEMERIS_TYPE":0,"CLASSIFICATION_TYPE":"U","NORAD_CAT_ID":40298,"ELEMENT_SET_NO":999,"REV_AT_EPOCH":62816,"BSTAR":0.0006191,"MEAN_MOTION_DOT":0.00013162,"MEAN_MOTION_DDOT":0},{"OBJECT_NAME":"YAOGAN-24","OBJECT_ID":"2014-072A","EPOCH":"2026-03-04T19:55:59.238336","MEAN_MOTION":14.76218814,"ECCENTRICITY":0.0012088,"INCLINATION":98.1295,"RA_OF_ASC_NODE":200.3935,"ARG_OF_PERICENTER":235.444,"MEAN_ANOMALY":124.5629,"EPHEMERIS_TYPE":0,"CLASSIFICATION_TYPE":"U","NORAD_CAT_ID":40310,"ELEMENT_SET_NO":999,"REV_AT_EPOCH":60832,"BSTAR":0.00024093,"MEAN_MOTION_DOT":1.616e-5,"MEAN_MOTION_DDOT":0},{"OBJECT_NAME":"CBERS 4","OBJECT_ID":"2014-079A","EPOCH":"2026-03-04T20:00:37.760832","MEAN_MOTION":14.35411057,"ECCENTRICITY":7.79e-5,"INCLINATION":98.3495,"RA_OF_ASC_NODE":124.002,"ARG_OF_PERICENTER":54.5959,"MEAN_ANOMALY":305.5299,"EPHEMERIS_TYPE":0,"CLASSIFICATION_TYPE":"U","NORAD_CAT_ID":40336,"ELEMENT_SET_NO":999,"REV_AT_EPOCH":58898,"BSTAR":4.6018e-5,"MEAN_MOTION_DOT":9.0e-7,"MEAN_MOTION_DDOT":0},{"OBJECT_NAME":"YAOGAN-26","OBJECT_ID":"2014-088A","EPOCH":"2026-03-04T20:58:44.303232","MEAN_MOTION":15.42953781,"ECCENTRICITY":0.000732,"INCLINATION":97.0661,"RA_OF_ASC_NODE":66.8417,"ARG_OF_PERICENTER":76.3384,"MEAN_ANOMALY":283.8679,"EPHEMERIS_TYPE":0,"CLASSIFICATION_TYPE":"U","NORAD_CAT_ID":40362,"ELEMENT_SET_NO":999,"REV_AT_EPOCH":62159,"BSTAR":0.00080333,"MEAN_MOTION_DOT":0.00035411,"MEAN_MOTION_DDOT":0},{"OBJECT_NAME":"SMAP","OBJECT_ID":"2015-003A","EPOCH":"2026-03-04T19:21:06.783264","MEAN_MOTION":14.63331792,"ECCENTRICITY":0.0001273,"INCLINATION":98.1311,"RA_OF_ASC_NODE":72.3633,"ARG_OF_PERICENTER":112.9677,"MEAN_ANOMALY":247.166,"EPHEMERIS_TYPE":0,"CLASSIFICATION_TYPE":"U","NORAD_CAT_ID":40376,"ELEMENT_SET_NO":999,"REV_AT_EPOCH":59235,"BSTAR":0.00016348,"MEAN_MOTION_DOT":7.97e-6,"MEAN_MOTION_DDOT":0},{"OBJECT_NAME":"KOMPSAT-3A","OBJECT_ID":"2015-014A","EPOCH":"2026-03-04T19:30:07.540128","MEAN_MOTION":15.48439399,"ECCENTRICITY":0.006294,"INCLINATION":97.6866,"RA_OF_ASC_NODE":47.9985,"ARG_OF_PERICENTER":195.1986,"MEAN_ANOMALY":164.7375,"EPHEMERIS_TYPE":0,"CLASSIFICATION_TYPE":"U","NORAD_CAT_ID":40536,"ELEMENT_SET_NO":999,"REV_AT_EPOCH":60563,"BSTAR":0.00054379,"MEAN_MOTION_DOT":0.00031214,"MEAN_MOTION_DDOT":0},{"OBJECT_NAME":"SENTINEL-2A","OBJECT_ID":"2015-028A","EPOCH":"2026-02-25T04:19:12.423360","MEAN_MOTION":14.30192923,"ECCENTRICITY":0.00543683,"INCLINATION":98.5024,"RA_OF_ASC_NODE":132.8928,"ARG_OF_PERICENTER":194.7437,"MEAN_ANOMALY":165.2162,"EPHEMERIS_TYPE":0,"CLASSIFICATION_TYPE":"U","NORAD_CAT_ID":40697,"ELEMENT_SET_NO":999,"REV_AT_EPOCH":55771,"BSTAR":7.6852184e-5,"MEAN_MOTION_DOT":1.59e-6,"MEAN_MOTION_DDOT":0},{"OBJECT_NAME":"GAOFEN-8","OBJECT_ID":"2015-030A","EPOCH":"2026-03-04T21:09:45.111168","MEAN_MOTION":15.42219051,"ECCENTRICITY":0.0009321,"INCLINATION":97.6923,"RA_OF_ASC_NODE":251.2616,"ARG_OF_PERICENTER":205.6282,"MEAN_ANOMALY":154.4503,"EPHEMERIS_TYPE":0,"CLASSIFICATION_TYPE":"U","NORAD_CAT_ID":40701,"ELEMENT_SET_NO":999,"REV_AT_EPOCH":59535,"BSTAR":0.00069071,"MEAN_MOTION_DOT":0.00029685,"MEAN_MOTION_DDOT":0},{"OBJECT_NAME":"CARBONITE 1 (CBNT-1)","OBJECT_ID":"2015-032D","EPOCH":"2026-03-04T19:57:33.950016","MEAN_MOTION":14.83192147,"ECCENTRICITY":0.0013319,"INCLINATION":97.6452,"RA_OF_ASC_NODE":246.3083,"ARG_OF_PERICENTER":278.1384,"MEAN_ANOMALY":81.8319,"EPHEMERIS_TYPE":0,"CLASSIFICATION_TYPE":"U","NORAD_CAT_ID":40718,"ELEMENT_SET_NO":999,"REV_AT_EPOCH":57387,"BSTAR":0.00050421,"MEAN_MOTION_DOT":4.073e-5,"MEAN_MOTION_DDOT":0},{"OBJECT_NAME":"YAOGAN-27","OBJECT_ID":"2015-040A","EPOCH":"2026-03-04T21:07:06.756384","MEAN_MOTION":13.16064476,"ECCENTRICITY":0.0008885,"INCLINATION":100.1092,"RA_OF_ASC_NODE":54.8185,"ARG_OF_PERICENTER":94.4267,"MEAN_ANOMALY":265.7862,"EPHEMERIS_TYPE":0,"CLASSIFICATION_TYPE":"U","NORAD_CAT_ID":40878,"ELEMENT_SET_NO":999,"REV_AT_EPOCH":50394,"BSTAR":1.047e-5,"MEAN_MOTION_DOT":-3.8e-7,"MEAN_MOTION_DDOT":0},{"OBJECT_NAME":"GAOFEN-9 01","OBJECT_ID":"2015-047A","EPOCH":"2026-03-04T20:52:52.599936","MEAN_MOTION":14.82667731,"ECCENTRICITY":0.0028776,"INCLINATION":97.6424,"RA_OF_ASC_NODE":104.2461,"ARG_OF_PERICENTER":120.9198,"MEAN_ANOMALY":239.4851,"EPHEMERIS_TYPE":0,"CLASSIFICATION_TYPE":"U","NORAD_CAT_ID":40894,"ELEMENT_SET_NO":999,"REV_AT_EPOCH":56473,"BSTAR":0.00019923,"MEAN_MOTION_DOT":1.567e-5,"MEAN_MOTION_DDOT":0},{"OBJECT_NAME":"YAOGAN-28","OBJECT_ID":"2015-064A","EPOCH":"2026-03-04T20:21:46.123200","MEAN_MOTION":15.25900825,"ECCENTRICITY":0.0010828,"INCLINATION":97.2895,"RA_OF_ASC_NODE":204.451,"ARG_OF_PERICENTER":193.4907,"MEAN_ANOMALY":166.6044,"EPHEMERIS_TYPE":0,"CLASSIFICATION_TYPE":"U","NORAD_CAT_ID":41026,"ELEMENT_SET_NO":999,"REV_AT_EPOCH":57476,"BSTAR":0.0004232,"MEAN_MOTION_DOT":0.00010801,"MEAN_MOTION_DDOT":0},{"OBJECT_NAME":"YAOGAN-29","OBJECT_ID":"2015-069A","EPOCH":"2026-03-04T20:51:21.900672","MEAN_MOTION":14.82987439,"ECCENTRICITY":0.0002196,"INCLINATION":98.0146,"RA_OF_ASC_NODE":92.285,"ARG_OF_PERICENTER":44.1428,"MEAN_ANOMALY":315.996,"EPHEMERIS_TYPE":0,"CLASSIFICATION_TYPE":"U","NORAD_CAT_ID":41038,"ELEMENT_SET_NO":999,"REV_AT_EPOCH":55516,"BSTAR":1.4731e-5,"MEAN_MOTION_DOT":6.5e-7,"MEAN_MOTION_DDOT":0}]
